IRIDIUM 136             
1 42962U 17061H   24082.33396034  .00000536  00000+0  18421-3 0  9997
2 42962  86.4034   6.6111 0002012  93.6258 266.5168 14.34221857337759
